{
  "type": "FeatureCollection",
  "name": "Stambadri Enclave - 48 Plots Masterplan",
  "features": [
    {
      "type": "Feature",
      "id": "PLOT-01",
      "properties": {
        "plot_id": 1,
        "plot_number": "P-01",
        "survey_number": "45/A-01",
        "extent_sqyards": 1950,
        "size": 1950,
        "price_per_sqyard": 1800,
        "total_price_lakhs": "35.10",
        "total_price": 3510000,
        "facing": "West",
        "status": "reserved",
        "contact": "+91 93928 87268",
        "layout_name": "Stambadri Enclave",
        "mandal": "Gurralapadu",
        "district": "Khammam",
        "dtcp_approved": true
      },
      "geometry": {
        "type": "Polygon",
        "coordinates": [
          [
            [
              80.135,
              17.2475
            ],
            [
              80.135308,
              17.2475
            ],
            [
              80.135308,
              17.24772
            ],
            [
              80.135,
              17.24772
            ],
            [
              80.135,
              17.2475
            ]
          ]
        ]
      }
    },
    {
      "type": "Feature",
      "id": "PLOT-02",
      "properties": {
        "plot_id": 2,
        "plot_number": "P-02",
        "survey_number": "45/A-02",
        "extent_sqyards": 2100,
        "size": 2100,
        "price_per_sqyard": 2000,
        "total_price_lakhs": "42.00",
        "total_price": 4200000,
        "facing": "East",
        "status": "reserved",
        "contact": "+91 93928 87268",
        "layout_name": "Stambadri Enclave",
        "mandal": "Gurralapadu",
        "district": "Khammam",
        "dtcp_approved": true
      },
      "geometry": {
        "type": "Polygon",
        "coordinates": [
          [
            [
              80.13535,
              17.2475
            ],
            [
              80.135658,
              17.2475
            ],
            [
              80.135658,
              17.24772
            ],
            [
              80.13535,
              17.24772
            ],
            [
              80.13535,
              17.2475
            ]
          ]
        ]
      }
    },
    {
      "type": "Feature",
      "id": "PLOT-03",
      "properties": {
        "plot_id": 3,
        "plot_number": "P-03",
        "survey_number": "45/A-03",
        "extent_sqyards": 2250,
        "size": 2250,
        "price_per_sqyard": 2200,
        "total_price_lakhs": "49.50",
        "total_price": 4950000,
        "facing": "West",
        "status": "available",
        "contact": "+91 93928 87268",
        "layout_name": "Stambadri Enclave",
        "mandal": "Gurralapadu",
        "district": "Khammam",
        "dtcp_approved": true
      },
      "geometry": {
        "type": "Polygon",
        "coordinates": [
          [
            [
              80.1357,
              17.2475
            ],
            [
              80.136008,
              17.2475
            ],
            [
              80.136008,
              17.24772
            ],
            [
              80.1357,
              17.24772
            ],
            [
              80.1357,
              17.2475
            ]
          ]
        ]
      }
    },
    {
      "type": "Feature",
      "id": "PLOT-04",
      "properties": {
        "plot_id": 4,
        "plot_number": "P-04",
        "survey_number": "45/A-04",
        "extent_sqyards": 2400,
        "size": 2400,
        "price_per_sqyard": 2400,
        "total_price_lakhs": "57.60",
        "total_price": 5760000,
        "facing": "East",
        "status": "reserved",
        "contact": "+91 93928 87268",
        "layout_name": "Stambadri Enclave",
        "mandal": "Gurralapadu",
        "district": "Khammam",
        "dtcp_approved": true
      },
      "geometry": {
        "type": "Polygon",
        "coordinates": [
          [
            [
              80.13605,
              17.2475
            ],
            [
              80.136358,
              17.2475
            ],
            [
              80.136358,
              17.24772
            ],
            [
              80.13605,
              17.24772
            ],
            [
              80.13605,
              17.2475
            ]
          ]
        ]
      }
    },
    {
      "type": "Feature",
      "id": "PLOT-05",
      "properties": {
        "plot_id": 5,
        "plot_number": "P-05",
        "survey_number": "45/A-05",
        "extent_sqyards": 2550,
        "size": 2550,
        "price_per_sqyard": 2500,
        "total_price_lakhs": "63.75",
        "total_price": 6375000,
        "facing": "West",
        "status": "reserved",
        "contact": "+91 93928 87268",
        "layout_name": "Stambadri Enclave",
        "mandal": "Gurralapadu",
        "district": "Khammam",
        "dtcp_approved": true
      },
      "geometry": {
        "type": "Polygon",
        "coordinates": [
          [
            [
              80.13655,
              17.2475
            ],
            [
              80.136858,
              17.2475
            ],
            [
              80.136858,
              17.24772
            ],
            [
              80.13655,
              17.24772
            ],
            [
              80.13655,
              17.2475
            ]
          ]
        ]
      }
    },
    {
      "type": "Feature",
      "id": "PLOT-06",
      "properties": {
        "plot_id": 6,
        "plot_number": "P-06",
        "survey_number": "45/A-06",
        "extent_sqyards": 2700,
        "size": 2700,
        "price_per_sqyard": 1600,
        "total_price_lakhs": "43.20",
        "total_price": 4320000,
        "facing": "East",
        "status": "available",
        "contact": "+91 93928 87268",
        "layout_name": "Stambadri Enclave",
        "mandal": "Gurralapadu",
        "district": "Khammam",
        "dtcp_approved": true
      },
      "geometry": {
        "type": "Polygon",
        "coordinates": [
          [
            [
              80.1369,
              17.2475
            ],
            [
              80.137208,
              17.2475
            ],
            [
              80.137208,
              17.24772
            ],
            [
              80.1369,
              17.24772
            ],
            [
              80.1369,
              17.2475
            ]
          ]
        ]
      }
    },
    {
      "type": "Feature",
      "id": "PLOT-07",
      "properties": {
        "plot_id": 7,
        "plot_number": "P-07",
        "survey_number": "45/A-07",
        "extent_sqyards": 2850,
        "size": 2850,
        "price_per_sqyard": 1800,
        "total_price_lakhs": "51.30",
        "total_price": 5130000,
        "facing": "West",
        "status": "reserved",
        "contact": "+91 93928 87268",
        "layout_name": "Stambadri Enclave",
        "mandal": "Gurralapadu",
        "district": "Khammam",
        "dtcp_approved": true
      },
      "geometry": {
        "type": "Polygon",
        "coordinates": [
          [
            [
              80.13725,
              17.2475
            ],
            [
              80.137558,
              17.2475
            ],
            [
              80.137558,
              17.24772
            ],
            [
              80.13725,
              17.24772
            ],
            [
              80.13725,
              17.2475
            ]
          ]
        ]
      }
    },
    {
      "type": "Feature",
      "id": "PLOT-08",
      "properties": {
        "plot_id": 8,
        "plot_number": "P-08",
        "survey_number": "45/A-08",
        "extent_sqyards": 1800,
        "size": 1800,
        "price_per_sqyard": 2000,
        "total_price_lakhs": "36.00",
        "total_price": 3600000,
        "facing": "East",
        "status": "reserved",
        "contact": "+91 93928 87268",
        "layout_name": "Stambadri Enclave",
        "mandal": "Gurralapadu",
        "district": "Khammam",
        "dtcp_approved": true
      },
      "geometry": {
        "type": "Polygon",
        "coordinates": [
          [
            [
              80.1376,
              17.2475
            ],
            [
              80.137908,
              17.2475
            ],
            [
              80.137908,
              17.24772
            ],
            [
              80.1376,
              17.24772
            ],
            [
              80.1376,
              17.2475
            ]
          ]
        ]
      }
    },
    {
      "type": "Feature",
      "id": "PLOT-09",
      "properties": {
        "plot_id": 9,
        "plot_number": "P-09",
        "survey_number": "45/A-09",
        "extent_sqyards": 1950,
        "size": 1950,
        "price_per_sqyard": 2200,
        "total_price_lakhs": "42.90",
        "total_price": 4290000,
        "facing": "West",
        "status": "available",
        "contact": "+91 93928 87268",
        "layout_name": "Stambadri Enclave",
        "mandal": "Gurralapadu",
        "district": "Khammam",
        "dtcp_approved": true
      },
      "geometry": {
        "type": "Polygon",
        "coordinates": [
          [
            [
              80.135,
              17.24775
            ],
            [
              80.135308,
              17.24775
            ],
            [
              80.135308,
              17.24797
            ],
            [
              80.135,
              17.24797
            ],
            [
              80.135,
              17.24775
            ]
          ]
        ]
      }
    },
    {
      "type": "Feature",
      "id": "PLOT-10",
      "properties": {
        "plot_id": 10,
        "plot_number": "P-10",
        "survey_number": "45/A-10",
        "extent_sqyards": 2100,
        "size": 2100,
        "price_per_sqyard": 2400,
        "total_price_lakhs": "50.40",
        "total_price": 5040000,
        "facing": "East",
        "status": "reserved",
        "contact": "+91 93928 87268",
        "layout_name": "Stambadri Enclave",
        "mandal": "Gurralapadu",
        "district": "Khammam",
        "dtcp_approved": true
      },
      "geometry": {
        "type": "Polygon",
        "coordinates": [
          [
            [
              80.13535,
              17.24775
            ],
            [
              80.135658,
              17.24775
            ],
            [
              80.135658,
              17.24797
            ],
            [
              80.13535,
              17.24797
            ],
            [
              80.13535,
              17.24775
            ]
          ]
        ]
      }
    },
    {
      "type": "Feature",
      "id": "PLOT-11",
      "properties": {
        "plot_id": 11,
        "plot_number": "P-11",
        "survey_number": "45/A-11",
        "extent_sqyards": 2250,
        "size": 2250,
        "price_per_sqyard": 2500,
        "total_price_lakhs": "56.25",
        "total_price": 5625000,
        "facing": "West",
        "status": "reserved",
        "contact": "+91 93928 87268",
        "layout_name": "Stambadri Enclave",
        "mandal": "Gurralapadu",
        "district": "Khammam",
        "dtcp_approved": true
      },
      "geometry": {
        "type": "Polygon",
        "coordinates": [
          [
            [
              80.1357,
              17.24775
            ],
            [
              80.136008,
              17.24775
            ],
            [
              80.136008,
              17.24797
            ],
            [
              80.1357,
              17.24797
            ],
            [
              80.1357,
              17.24775
            ]
          ]
        ]
      }
    },
    {
      "type": "Feature",
      "id": "PLOT-12",
      "properties": {
        "plot_id": 12,
        "plot_number": "P-12",
        "survey_number": "45/A-12",
        "extent_sqyards": 2400,
        "size": 2400,
        "price_per_sqyard": 1600,
        "total_price_lakhs": "38.40",
        "total_price": 3840000,
        "facing": "East",
        "status": "available",
        "contact": "+91 93928 87268",
        "layout_name": "Stambadri Enclave",
        "mandal": "Gurralapadu",
        "district": "Khammam",
        "dtcp_approved": true
      },
      "geometry": {
        "type": "Polygon",
        "coordinates": [
          [
            [
              80.13605,
              17.24775
            ],
            [
              80.136358,
              17.24775
            ],
            [
              80.136358,
              17.24797
            ],
            [
              80.13605,
              17.24797
            ],
            [
              80.13605,
              17.24775
            ]
          ]
        ]
      }
    },
    {
      "type": "Feature",
      "id": "PLOT-13",
      "properties": {
        "plot_id": 13,
        "plot_number": "P-13",
        "survey_number": "45/A-13",
        "extent_sqyards": 2550,
        "size": 2550,
        "price_per_sqyard": 1800,
        "total_price_lakhs": "45.90",
        "total_price": 4590000,
        "facing": "West",
        "status": "reserved",
        "contact": "+91 93928 87268",
        "layout_name": "Stambadri Enclave",
        "mandal": "Gurralapadu",
        "district": "Khammam",
        "dtcp_approved": true
      },
      "geometry": {
        "type": "Polygon",
        "coordinates": [
          [
            [
              80.13655,
              17.24775
            ],
            [
              80.136858,
              17.24775
            ],
            [
              80.136858,
              17.24797
            ],
            [
              80.13655,
              17.24797
            ],
            [
              80.13655,
              17.24775
            ]
          ]
        ]
      }
    },
    {
      "type": "Feature",
      "id": "PLOT-14",
      "properties": {
        "plot_id": 14,
        "plot_number": "P-14",
        "survey_number": "45/A-14",
        "extent_sqyards": 2700,
        "size": 2700,
        "price_per_sqyard": 2000,
        "total_price_lakhs": "54.00",
        "total_price": 5400000,
        "facing": "East",
        "status": "reserved",
        "contact": "+91 93928 87268",
        "layout_name": "Stambadri Enclave",
        "mandal": "Gurralapadu",
        "district": "Khammam",
        "dtcp_approved": true
      },
      "geometry": {
        "type": "Polygon",
        "coordinates": [
          [
            [
              80.1369,
              17.24775
            ],
            [
              80.137208,
              17.24775
            ],
            [
              80.137208,
              17.24797
            ],
            [
              80.1369,
              17.24797
            ],
            [
              80.1369,
              17.24775
            ]
          ]
        ]
      }
    },
    {
      "type": "Feature",
      "id": "PLOT-15",
      "properties": {
        "plot_id": 15,
        "plot_number": "P-15",
        "survey_number": "45/A-15",
        "extent_sqyards": 2850,
        "size": 2850,
        "price_per_sqyard": 2200,
        "total_price_lakhs": "62.70",
        "total_price": 6270000,
        "facing": "West",
        "status": "available",
        "contact": "+91 93928 87268",
        "layout_name": "Stambadri Enclave",
        "mandal": "Gurralapadu",
        "district": "Khammam",
        "dtcp_approved": true
      },
      "geometry": {
        "type": "Polygon",
        "coordinates": [
          [
            [
              80.13725,
              17.24775
            ],
            [
              80.137558,
              17.24775
            ],
            [
              80.137558,
              17.24797
            ],
            [
              80.13725,
              17.24797
            ],
            [
              80.13725,
              17.24775
            ]
          ]
        ]
      }
    },
    {
      "type": "Feature",
      "id": "PLOT-16",
      "properties": {
        "plot_id": 16,
        "plot_number": "P-16",
        "survey_number": "45/A-16",
        "extent_sqyards": 1800,
        "size": 1800,
        "price_per_sqyard": 2400,
        "total_price_lakhs": "43.20",
        "total_price": 4320000,
        "facing": "East",
        "status": "reserved",
        "contact": "+91 93928 87268",
        "layout_name": "Stambadri Enclave",
        "mandal": "Gurralapadu",
        "district": "Khammam",
        "dtcp_approved": true
      },
      "geometry": {
        "type": "Polygon",
        "coordinates": [
          [
            [
              80.1376,
              17.24775
            ],
            [
              80.137908,
              17.24775
            ],
            [
              80.137908,
              17.24797
            ],
            [
              80.1376,
              17.24797
            ],
            [
              80.1376,
              17.24775
            ]
          ]
        ]
      }
    },
    {
      "type": "Feature",
      "id": "PLOT-17",
      "properties": {
        "plot_id": 17,
        "plot_number": "P-17",
        "survey_number": "45/A-17",
        "extent_sqyards": 1950,
        "size": 1950,
        "price_per_sqyard": 2500,
        "total_price_lakhs": "48.75",
        "total_price": 4875000,
        "facing": "West",
        "status": "reserved",
        "contact": "+91 93928 87268",
        "layout_name": "Stambadri Enclave",
        "mandal": "Gurralapadu",
        "district": "Khammam",
        "dtcp_approved": true
      },
      "geometry": {
        "type": "Polygon",
        "coordinates": [
          [
            [
              80.135,
              17.248
            ],
            [
              80.135308,
              17.248
            ],
            [
              80.135308,
              17.24822
            ],
            [
              80.135,
              17.24822
            ],
            [
              80.135,
              17.248
            ]
          ]
        ]
      }
    },
    {
      "type": "Feature",
      "id": "PLOT-18",
      "properties": {
        "plot_id": 18,
        "plot_number": "P-18",
        "survey_number": "45/A-18",
        "extent_sqyards": 2100,
        "size": 2100,
        "price_per_sqyard": 1600,
        "total_price_lakhs": "33.60",
        "total_price": 3360000,
        "facing": "East",
        "status": "available",
        "contact": "+91 93928 87268",
        "layout_name": "Stambadri Enclave",
        "mandal": "Gurralapadu",
        "district": "Khammam",
        "dtcp_approved": true
      },
      "geometry": {
        "type": "Polygon",
        "coordinates": [
          [
            [
              80.13535,
              17.248
            ],
            [
              80.135658,
              17.248
            ],
            [
              80.135658,
              17.24822
            ],
            [
              80.13535,
              17.24822
            ],
            [
              80.13535,
              17.248
            ]
          ]
        ]
      }
    },
    {
      "type": "Feature",
      "id": "PLOT-19",
      "properties": {
        "plot_id": 19,
        "plot_number": "P-19",
        "survey_number": "45/A-19",
        "extent_sqyards": 2250,
        "size": 2250,
        "price_per_sqyard": 1800,
        "total_price_lakhs": "40.50",
        "total_price": 4050000,
        "facing": "West",
        "status": "reserved",
        "contact": "+91 93928 87268",
        "layout_name": "Stambadri Enclave",
        "mandal": "Gurralapadu",
        "district": "Khammam",
        "dtcp_approved": true
      },
      "geometry": {
        "type": "Polygon",
        "coordinates": [
          [
            [
              80.1357,
              17.248
            ],
            [
              80.136008,
              17.248
            ],
            [
              80.136008,
              17.24822
            ],
            [
              80.1357,
              17.24822
            ],
            [
              80.1357,
              17.248
            ]
          ]
        ]
      }
    },
    {
      "type": "Feature",
      "id": "PLOT-20",
      "properties": {
        "plot_id": 20,
        "plot_number": "P-20",
        "survey_number": "45/A-20",
        "extent_sqyards": 2400,
        "size": 2400,
        "price_per_sqyard": 2000,
        "total_price_lakhs": "48.00",
        "total_price": 4800000,
        "facing": "East",
        "status": "reserved",
        "contact": "+91 93928 87268",
        "layout_name": "Stambadri Enclave",
        "mandal": "Gurralapadu",
        "district": "Khammam",
        "dtcp_approved": true
      },
      "geometry": {
        "type": "Polygon",
        "coordinates": [
          [
            [
              80.13605,
              17.248
            ],
            [
              80.136358,
              17.248
            ],
            [
              80.136358,
              17.24822
            ],
            [
              80.13605,
              17.24822
            ],
            [
              80.13605,
              17.248
            ]
          ]
        ]
      }
    },
    {
      "type": "Feature",
      "id": "PLOT-21",
      "properties": {
        "plot_id": 21,
        "plot_number": "P-21",
        "survey_number": "45/A-21",
        "extent_sqyards": 2550,
        "size": 2550,
        "price_per_sqyard": 2200,
        "total_price_lakhs": "56.10",
        "total_price": 5610000,
        "facing": "West",
        "status": "available",
        "contact": "+91 93928 87268",
        "layout_name": "Stambadri Enclave",
        "mandal": "Gurralapadu",
        "district": "Khammam",
        "dtcp_approved": true
      },
      "geometry": {
        "type": "Polygon",
        "coordinates": [
          [
            [
              80.13655,
              17.248
            ],
            [
              80.136858,
              17.248
            ],
            [
              80.136858,
              17.24822
            ],
            [
              80.13655,
              17.24822
            ],
            [
              80.13655,
              17.248
            ]
          ]
        ]
      }
    },
    {
      "type": "Feature",
      "id": "PLOT-22",
      "properties": {
        "plot_id": 22,
        "plot_number": "P-22",
        "survey_number": "45/A-22",
        "extent_sqyards": 2700,
        "size": 2700,
        "price_per_sqyard": 2400,
        "total_price_lakhs": "64.80",
        "total_price": 6480000,
        "facing": "East",
        "status": "reserved",
        "contact": "+91 93928 87268",
        "layout_name": "Stambadri Enclave",
        "mandal": "Gurralapadu",
        "district": "Khammam",
        "dtcp_approved": true
      },
      "geometry": {
        "type": "Polygon",
        "coordinates": [
          [
            [
              80.1369,
              17.248
            ],
            [
              80.137208,
              17.248
            ],
            [
              80.137208,
              17.24822
            ],
            [
              80.1369,
              17.24822
            ],
            [
              80.1369,
              17.248
            ]
          ]
        ]
      }
    },
    {
      "type": "Feature",
      "id": "PLOT-23",
      "properties": {
        "plot_id": 23,
        "plot_number": "P-23",
        "survey_number": "45/A-23",
        "extent_sqyards": 2850,
        "size": 2850,
        "price_per_sqyard": 2500,
        "total_price_lakhs": "71.25",
        "total_price": 7125000,
        "facing": "West",
        "status": "reserved",
        "contact": "+91 93928 87268",
        "layout_name": "Stambadri Enclave",
        "mandal": "Gurralapadu",
        "district": "Khammam",
        "dtcp_approved": true
      },
      "geometry": {
        "type": "Polygon",
        "coordinates": [
          [
            [
              80.13725,
              17.248
            ],
            [
              80.137558,
              17.248
            ],
            [
              80.137558,
              17.24822
            ],
            [
              80.13725,
              17.24822
            ],
            [
              80.13725,
              17.248
            ]
          ]
        ]
      }
    },
    {
      "type": "Feature",
      "id": "PLOT-24",
      "properties": {
        "plot_id": 24,
        "plot_number": "P-24",
        "survey_number": "45/A-24",
        "extent_sqyards": 1800,
        "size": 1800,
        "price_per_sqyard": 1600,
        "total_price_lakhs": "28.80",
        "total_price": 2880000,
        "facing": "East",
        "status": "available",
        "contact": "+91 93928 87268",
        "layout_name": "Stambadri Enclave",
        "mandal": "Gurralapadu",
        "district": "Khammam",
        "dtcp_approved": true
      },
      "geometry": {
        "type": "Polygon",
        "coordinates": [
          [
            [
              80.1376,
              17.248
            ],
            [
              80.137908,
              17.248
            ],
            [
              80.137908,
              17.24822
            ],
            [
              80.1376,
              17.24822
            ],
            [
              80.1376,
              17.248
            ]
          ]
        ]
      }
    },
    {
      "type": "Feature",
      "id": "PLOT-25",
      "properties": {
        "plot_id": 25,
        "plot_number": "P-25",
        "survey_number": "45/A-25",
        "extent_sqyards": 1950,
        "size": 1950,
        "price_per_sqyard": 1800,
        "total_price_lakhs": "35.10",
        "total_price": 3510000,
        "facing": "West",
        "status": "reserved",
        "contact": "+91 93928 87268",
        "layout_name": "Stambadri Enclave",
        "mandal": "Gurralapadu",
        "district": "Khammam",
        "dtcp_approved": true
      },
      "geometry": {
        "type": "Polygon",
        "coordinates": [
          [
            [
              80.135,
              17.2484
            ],
            [
              80.135308,
              17.2484
            ],
            [
              80.135308,
              17.24862
            ],
            [
              80.135,
              17.24862
            ],
            [
              80.135,
              17.2484
            ]
          ]
        ]
      }
    },
    {
      "type": "Feature",
      "id": "PLOT-26",
      "properties": {
        "plot_id": 26,
        "plot_number": "P-26",
        "survey_number": "45/A-26",
        "extent_sqyards": 2100,
        "size": 2100,
        "price_per_sqyard": 2000,
        "total_price_lakhs": "42.00",
        "total_price": 4200000,
        "facing": "East",
        "status": "reserved",
        "contact": "+91 93928 87268",
        "layout_name": "Stambadri Enclave",
        "mandal": "Gurralapadu",
        "district": "Khammam",
        "dtcp_approved": true
      },
      "geometry": {
        "type": "Polygon",
        "coordinates": [
          [
            [
              80.13535,
              17.2484
            ],
            [
              80.135658,
              17.2484
            ],
            [
              80.135658,
              17.24862
            ],
            [
              80.13535,
              17.24862
            ],
            [
              80.13535,
              17.2484
            ]
          ]
        ]
      }
    },
    {
      "type": "Feature",
      "id": "PLOT-27",
      "properties": {
        "plot_id": 27,
        "plot_number": "P-27",
        "survey_number": "45/A-27",
        "extent_sqyards": 2250,
        "size": 2250,
        "price_per_sqyard": 2200,
        "total_price_lakhs": "49.50",
        "total_price": 4950000,
        "facing": "West",
        "status": "available",
        "contact": "+91 93928 87268",
        "layout_name": "Stambadri Enclave",
        "mandal": "Gurralapadu",
        "district": "Khammam",
        "dtcp_approved": true
      },
      "geometry": {
        "type": "Polygon",
        "coordinates": [
          [
            [
              80.1357,
              17.2484
            ],
            [
              80.136008,
              17.2484
            ],
            [
              80.136008,
              17.24862
            ],
            [
              80.1357,
              17.24862
            ],
            [
              80.1357,
              17.2484
            ]
          ]
        ]
      }
    },
    {
      "type": "Feature",
      "id": "PLOT-28",
      "properties": {
        "plot_id": 28,
        "plot_number": "P-28",
        "survey_number": "45/A-28",
        "extent_sqyards": 2400,
        "size": 2400,
        "price_per_sqyard": 2400,
        "total_price_lakhs": "57.60",
        "total_price": 5760000,
        "facing": "East",
        "status": "reserved",
        "contact": "+91 93928 87268",
        "layout_name": "Stambadri Enclave",
        "mandal": "Gurralapadu",
        "district": "Khammam",
        "dtcp_approved": true
      },
      "geometry": {
        "type": "Polygon",
        "coordinates": [
          [
            [
              80.13605,
              17.2484
            ],
            [
              80.136358,
              17.2484
            ],
            [
              80.136358,
              17.24862
            ],
            [
              80.13605,
              17.24862
            ],
            [
              80.13605,
              17.2484
            ]
          ]
        ]
      }
    },
    {
      "type": "Feature",
      "id": "PLOT-29",
      "properties": {
        "plot_id": 29,
        "plot_number": "P-29",
        "survey_number": "45/A-29",
        "extent_sqyards": 2550,
        "size": 2550,
        "price_per_sqyard": 2500,
        "total_price_lakhs": "63.75",
        "total_price": 6375000,
        "facing": "West",
        "status": "reserved",
        "contact": "+91 93928 87268",
        "layout_name": "Stambadri Enclave",
        "mandal": "Gurralapadu",
        "district": "Khammam",
        "dtcp_approved": true
      },
      "geometry": {
        "type": "Polygon",
        "coordinates": [
          [
            [
              80.13655,
              17.2484
            ],
            [
              80.136858,
              17.2484
            ],
            [
              80.136858,
              17.24862
            ],
            [
              80.13655,
              17.24862
            ],
            [
              80.13655,
              17.2484
            ]
          ]
        ]
      }
    },
    {
      "type": "Feature",
      "id": "PLOT-30",
      "properties": {
        "plot_id": 30,
        "plot_number": "P-30",
        "survey_number": "45/A-30",
        "extent_sqyards": 2700,
        "size": 2700,
        "price_per_sqyard": 1600,
        "total_price_lakhs": "43.20",
        "total_price": 4320000,
        "facing": "East",
        "status": "available",
        "contact": "+91 93928 87268",
        "layout_name": "Stambadri Enclave",
        "mandal": "Gurralapadu",
        "district": "Khammam",
        "dtcp_approved": true
      },
      "geometry": {
        "type": "Polygon",
        "coordinates": [
          [
            [
              80.1369,
              17.2484
            ],
            [
              80.137208,
              17.2484
            ],
            [
              80.137208,
              17.24862
            ],
            [
              80.1369,
              17.24862
            ],
            [
              80.1369,
              17.2484
            ]
          ]
        ]
      }
    },
    {
      "type": "Feature",
      "id": "PLOT-31",
      "properties": {
        "plot_id": 31,
        "plot_number": "P-31",
        "survey_number": "45/A-31",
        "extent_sqyards": 2850,
        "size": 2850,
        "price_per_sqyard": 1800,
        "total_price_lakhs": "51.30",
        "total_price": 5130000,
        "facing": "West",
        "status": "reserved",
        "contact": "+91 93928 87268",
        "layout_name": "Stambadri Enclave",
        "mandal": "Gurralapadu",
        "district": "Khammam",
        "dtcp_approved": true
      },
      "geometry": {
        "type": "Polygon",
        "coordinates": [
          [
            [
              80.13725,
              17.2484
            ],
            [
              80.137558,
              17.2484
            ],
            [
              80.137558,
              17.24862
            ],
            [
              80.13725,
              17.24862
            ],
            [
              80.13725,
              17.2484
            ]
          ]
        ]
      }
    },
    {
      "type": "Feature",
      "id": "PLOT-32",
      "properties": {
        "plot_id": 32,
        "plot_number": "P-32",
        "survey_number": "45/A-32",
        "extent_sqyards": 1800,
        "size": 1800,
        "price_per_sqyard": 2000,
        "total_price_lakhs": "36.00",
        "total_price": 3600000,
        "facing": "East",
        "status": "reserved",
        "contact": "+91 93928 87268",
        "layout_name": "Stambadri Enclave",
        "mandal": "Gurralapadu",
        "district": "Khammam",
        "dtcp_approved": true
      },
      "geometry": {
        "type": "Polygon",
        "coordinates": [
          [
            [
              80.1376,
              17.2484
            ],
            [
              80.137908,
              17.2484
            ],
            [
              80.137908,
              17.24862
            ],
            [
              80.1376,
              17.24862
            ],
            [
              80.1376,
              17.2484
            ]
          ]
        ]
      }
    },
    {
      "type": "Feature",
      "id": "PLOT-33",
      "properties": {
        "plot_id": 33,
        "plot_number": "P-33",
        "survey_number": "45/A-33",
        "extent_sqyards": 1950,
        "size": 1950,
        "price_per_sqyard": 2200,
        "total_price_lakhs": "42.90",
        "total_price": 4290000,
        "facing": "West",
        "status": "available",
        "contact": "+91 93928 87268",
        "layout_name": "Stambadri Enclave",
        "mandal": "Gurralapadu",
        "district": "Khammam",
        "dtcp_approved": true
      },
      "geometry": {
        "type": "Polygon",
        "coordinates": [
          [
            [
              80.135,
              17.24865
            ],
            [
              80.135308,
              17.24865
            ],
            [
              80.135308,
              17.24887
            ],
            [
              80.135,
              17.24887
            ],
            [
              80.135,
              17.24865
            ]
          ]
        ]
      }
    },
    {
      "type": "Feature",
      "id": "PLOT-34",
      "properties": {
        "plot_id": 34,
        "plot_number": "P-34",
        "survey_number": "45/A-34",
        "extent_sqyards": 2100,
        "size": 2100,
        "price_per_sqyard": 2400,
        "total_price_lakhs": "50.40",
        "total_price": 5040000,
        "facing": "East",
        "status": "reserved",
        "contact": "+91 93928 87268",
        "layout_name": "Stambadri Enclave",
        "mandal": "Gurralapadu",
        "district": "Khammam",
        "dtcp_approved": true
      },
      "geometry": {
        "type": "Polygon",
        "coordinates": [
          [
            [
              80.13535,
              17.24865
            ],
            [
              80.135658,
              17.24865
            ],
            [
              80.135658,
              17.24887
            ],
            [
              80.13535,
              17.24887
            ],
            [
              80.13535,
              17.24865
            ]
          ]
        ]
      }
    },
    {
      "type": "Feature",
      "id": "PLOT-35",
      "properties": {
        "plot_id": 35,
        "plot_number": "P-35",
        "survey_number": "45/A-35",
        "extent_sqyards": 2250,
        "size": 2250,
        "price_per_sqyard": 2500,
        "total_price_lakhs": "56.25",
        "total_price": 5625000,
        "facing": "West",
        "status": "reserved",
        "contact": "+91 93928 87268",
        "layout_name": "Stambadri Enclave",
        "mandal": "Gurralapadu",
        "district": "Khammam",
        "dtcp_approved": true
      },
      "geometry": {
        "type": "Polygon",
        "coordinates": [
          [
            [
              80.1357,
              17.24865
            ],
            [
              80.136008,
              17.24865
            ],
            [
              80.136008,
              17.24887
            ],
            [
              80.1357,
              17.24887
            ],
            [
              80.1357,
              17.24865
            ]
          ]
        ]
      }
    },
    {
      "type": "Feature",
      "id": "PLOT-36",
      "properties": {
        "plot_id": 36,
        "plot_number": "P-36",
        "survey_number": "45/A-36",
        "extent_sqyards": 2400,
        "size": 2400,
        "price_per_sqyard": 1600,
        "total_price_lakhs": "38.40",
        "total_price": 3840000,
        "facing": "East",
        "status": "available",
        "contact": "+91 93928 87268",
        "layout_name": "Stambadri Enclave",
        "mandal": "Gurralapadu",
        "district": "Khammam",
        "dtcp_approved": true
      },
      "geometry": {
        "type": "Polygon",
        "coordinates": [
          [
            [
              80.13605,
              17.24865
            ],
            [
              80.136358,
              17.24865
            ],
            [
              80.136358,
              17.24887
            ],
            [
              80.13605,
              17.24887
            ],
            [
              80.13605,
              17.24865
            ]
          ]
        ]
      }
    },
    {
      "type": "Feature",
      "id": "PLOT-37",
      "properties": {
        "plot_id": 37,
        "plot_number": "P-37",
        "survey_number": "45/A-37",
        "extent_sqyards": 2550,
        "size": 2550,
        "price_per_sqyard": 1800,
        "total_price_lakhs": "45.90",
        "total_price": 4590000,
        "facing": "West",
        "status": "reserved",
        "contact": "+91 93928 87268",
        "layout_name": "Stambadri Enclave",
        "mandal": "Gurralapadu",
        "district": "Khammam",
        "dtcp_approved": true
      },
      "geometry": {
        "type": "Polygon",
        "coordinates": [
          [
            [
              80.13655,
              17.24865
            ],
            [
              80.136858,
              17.24865
            ],
            [
              80.136858,
              17.24887
            ],
            [
              80.13655,
              17.24887
            ],
            [
              80.13655,
              17.24865
            ]
          ]
        ]
      }
    },
    {
      "type": "Feature",
      "id": "PLOT-38",
      "properties": {
        "plot_id": 38,
        "plot_number": "P-38",
        "survey_number": "45/A-38",
        "extent_sqyards": 2700,
        "size": 2700,
        "price_per_sqyard": 2000,
        "total_price_lakhs": "54.00",
        "total_price": 5400000,
        "facing": "East",
        "status": "reserved",
        "contact": "+91 93928 87268",
        "layout_name": "Stambadri Enclave",
        "mandal": "Gurralapadu",
        "district": "Khammam",
        "dtcp_approved": true
      },
      "geometry": {
        "type": "Polygon",
        "coordinates": [
          [
            [
              80.1369,
              17.24865
            ],
            [
              80.137208,
              17.24865
            ],
            [
              80.137208,
              17.24887
            ],
            [
              80.1369,
              17.24887
            ],
            [
              80.1369,
              17.24865
            ]
          ]
        ]
      }
    },
    {
      "type": "Feature",
      "id": "PLOT-39",
      "properties": {
        "plot_id": 39,
        "plot_number": "P-39",
        "survey_number": "45/A-39",
        "extent_sqyards": 2850,
        "size": 2850,
        "price_per_sqyard": 2200,
        "total_price_lakhs": "62.70",
        "total_price": 6270000,
        "facing": "West",
        "status": "available",
        "contact": "+91 93928 87268",
        "layout_name": "Stambadri Enclave",
        "mandal": "Gurralapadu",
        "district": "Khammam",
        "dtcp_approved": true
      },
      "geometry": {
        "type": "Polygon",
        "coordinates": [
          [
            [
              80.13725,
              17.24865
            ],
            [
              80.137558,
              17.24865
            ],
            [
              80.137558,
              17.24887
            ],
            [
              80.13725,
              17.24887
            ],
            [
              80.13725,
              17.24865
            ]
          ]
        ]
      }
    },
    {
      "type": "Feature",
      "id": "PLOT-40",
      "properties": {
        "plot_id": 40,
        "plot_number": "P-40",
        "survey_number": "45/A-40",
        "extent_sqyards": 1800,
        "size": 1800,
        "price_per_sqyard": 2400,
        "total_price_lakhs": "43.20",
        "total_price": 4320000,
        "facing": "East",
        "status": "reserved",
        "contact": "+91 93928 87268",
        "layout_name": "Stambadri Enclave",
        "mandal": "Gurralapadu",
        "district": "Khammam",
        "dtcp_approved": true
      },
      "geometry": {
        "type": "Polygon",
        "coordinates": [
          [
            [
              80.1376,
              17.24865
            ],
            [
              80.137908,
              17.24865
            ],
            [
              80.137908,
              17.24887
            ],
            [
              80.1376,
              17.24887
            ],
            [
              80.1376,
              17.24865
            ]
          ]
        ]
      }
    },
    {
      "type": "Feature",
      "id": "PLOT-41",
      "properties": {
        "plot_id": 41,
        "plot_number": "P-41",
        "survey_number": "45/A-41",
        "extent_sqyards": 1950,
        "size": 1950,
        "price_per_sqyard": 2500,
        "total_price_lakhs": "48.75",
        "total_price": 4875000,
        "facing": "West",
        "status": "reserved",
        "contact": "+91 93928 87268",
        "layout_name": "Stambadri Enclave",
        "mandal": "Gurralapadu",
        "district": "Khammam",
        "dtcp_approved": true
      },
      "geometry": {
        "type": "Polygon",
        "coordinates": [
          [
            [
              80.135,
              17.2489
            ],
            [
              80.135308,
              17.2489
            ],
            [
              80.135308,
              17.24912
            ],
            [
              80.135,
              17.24912
            ],
            [
              80.135,
              17.2489
            ]
          ]
        ]
      }
    },
    {
      "type": "Feature",
      "id": "PLOT-42",
      "properties": {
        "plot_id": 42,
        "plot_number": "P-42",
        "survey_number": "45/A-42",
        "extent_sqyards": 2100,
        "size": 2100,
        "price_per_sqyard": 1600,
        "total_price_lakhs": "33.60",
        "total_price": 3360000,
        "facing": "East",
        "status": "available",
        "contact": "+91 93928 87268",
        "layout_name": "Stambadri Enclave",
        "mandal": "Gurralapadu",
        "district": "Khammam",
        "dtcp_approved": true
      },
      "geometry": {
        "type": "Polygon",
        "coordinates": [
          [
            [
              80.13535,
              17.2489
            ],
            [
              80.135658,
              17.2489
            ],
            [
              80.135658,
              17.24912
            ],
            [
              80.13535,
              17.24912
            ],
            [
              80.13535,
              17.2489
            ]
          ]
        ]
      }
    },
    {
      "type": "Feature",
      "id": "PLOT-43",
      "properties": {
        "plot_id": 43,
        "plot_number": "P-43",
        "survey_number": "45/A-43",
        "extent_sqyards": 2250,
        "size": 2250,
        "price_per_sqyard": 1800,
        "total_price_lakhs": "40.50",
        "total_price": 4050000,
        "facing": "West",
        "status": "reserved",
        "contact": "+91 93928 87268",
        "layout_name": "Stambadri Enclave",
        "mandal": "Gurralapadu",
        "district": "Khammam",
        "dtcp_approved": true
      },
      "geometry": {
        "type": "Polygon",
        "coordinates": [
          [
            [
              80.1357,
              17.2489
            ],
            [
              80.136008,
              17.2489
            ],
            [
              80.136008,
              17.24912
            ],
            [
              80.1357,
              17.24912
            ],
            [
              80.1357,
              17.2489
            ]
          ]
        ]
      }
    },
    {
      "type": "Feature",
      "id": "PLOT-44",
      "properties": {
        "plot_id": 44,
        "plot_number": "P-44",
        "survey_number": "45/A-44",
        "extent_sqyards": 2400,
        "size": 2400,
        "price_per_sqyard": 2000,
        "total_price_lakhs": "48.00",
        "total_price": 4800000,
        "facing": "East",
        "status": "reserved",
        "contact": "+91 93928 87268",
        "layout_name": "Stambadri Enclave",
        "mandal": "Gurralapadu",
        "district": "Khammam",
        "dtcp_approved": true
      },
      "geometry": {
        "type": "Polygon",
        "coordinates": [
          [
            [
              80.13605,
              17.2489
            ],
            [
              80.136358,
              17.2489
            ],
            [
              80.136358,
              17.24912
            ],
            [
              80.13605,
              17.24912
            ],
            [
              80.13605,
              17.2489
            ]
          ]
        ]
      }
    },
    {
      "type": "Feature",
      "id": "PLOT-45",
      "properties": {
        "plot_id": 45,
        "plot_number": "P-45",
        "survey_number": "45/A-45",
        "extent_sqyards": 2550,
        "size": 2550,
        "price_per_sqyard": 2200,
        "total_price_lakhs": "56.10",
        "total_price": 5610000,
        "facing": "West",
        "status": "available",
        "contact": "+91 93928 87268",
        "layout_name": "Stambadri Enclave",
        "mandal": "Gurralapadu",
        "district": "Khammam",
        "dtcp_approved": true
      },
      "geometry": {
        "type": "Polygon",
        "coordinates": [
          [
            [
              80.13655,
              17.2489
            ],
            [
              80.136858,
              17.2489
            ],
            [
              80.136858,
              17.24912
            ],
            [
              80.13655,
              17.24912
            ],
            [
              80.13655,
              17.2489
            ]
          ]
        ]
      }
    },
    {
      "type": "Feature",
      "id": "PLOT-46",
      "properties": {
        "plot_id": 46,
        "plot_number": "P-46",
        "survey_number": "45/A-46",
        "extent_sqyards": 2700,
        "size": 2700,
        "price_per_sqyard": 2400,
        "total_price_lakhs": "64.80",
        "total_price": 6480000,
        "facing": "East",
        "status": "reserved",
        "contact": "+91 93928 87268",
        "layout_name": "Stambadri Enclave",
        "mandal": "Gurralapadu",
        "district": "Khammam",
        "dtcp_approved": true
      },
      "geometry": {
        "type": "Polygon",
        "coordinates": [
          [
            [
              80.1369,
              17.2489
            ],
            [
              80.137208,
              17.2489
            ],
            [
              80.137208,
              17.24912
            ],
            [
              80.1369,
              17.24912
            ],
            [
              80.1369,
              17.2489
            ]
          ]
        ]
      }
    },
    {
      "type": "Feature",
      "id": "PLOT-47",
      "properties": {
        "plot_id": 47,
        "plot_number": "P-47",
        "survey_number": "45/A-47",
        "extent_sqyards": 2850,
        "size": 2850,
        "price_per_sqyard": 2500,
        "total_price_lakhs": "71.25",
        "total_price": 7125000,
        "facing": "West",
        "status": "reserved",
        "contact": "+91 93928 87268",
        "layout_name": "Stambadri Enclave",
        "mandal": "Gurralapadu",
        "district": "Khammam",
        "dtcp_approved": true
      },
      "geometry": {
        "type": "Polygon",
        "coordinates": [
          [
            [
              80.13725,
              17.2489
            ],
            [
              80.137558,
              17.2489
            ],
            [
              80.137558,
              17.24912
            ],
            [
              80.13725,
              17.24912
            ],
            [
              80.13725,
              17.2489
            ]
          ]
        ]
      }
    },
    {
      "type": "Feature",
      "id": "PLOT-48",
      "properties": {
        "plot_id": 48,
        "plot_number": "P-48",
        "survey_number": "45/A-48",
        "extent_sqyards": 1800,
        "size": 1800,
        "price_per_sqyard": 1600,
        "total_price_lakhs": "28.80",
        "total_price": 2880000,
        "facing": "East",
        "status": "available",
        "contact": "+91 93928 87268",
        "layout_name": "Stambadri Enclave",
        "mandal": "Gurralapadu",
        "district": "Khammam",
        "dtcp_approved": true
      },
      "geometry": {
        "type": "Polygon",
        "coordinates": [
          [
            [
              80.1376,
              17.2489
            ],
            [
              80.137908,
              17.2489
            ],
            [
              80.137908,
              17.24912
            ],
            [
              80.1376,
              17.24912
            ],
            [
              80.1376,
              17.2489
            ]
          ]
        ]
      }
    }
  ]
}