{
  "type": "FeatureCollection",
  "features": [
    {
      "type": "Feature",
      "properties": {
        "OBJECTID": 1,
        "Remarks": " ",
        "LandUse_Fr": "Naksha",
        "District": "Mahabubnagar",
        "Mandal": "Addakal",
        "Village": "Baleedupalle",
        "DMV_1991": "1437004",
        "V_2011": "576028",
        "Base_Syno": "111",
        "Descriptio": "Surveyed",
        "Shape_Length": 267.6026919627333,
        "Shape_Area": 1975.608647805836
      },
      "geometry": {
        "type": "Polygon",
        "coordinates": [
          [
            [
              77.92432103257745,
              16.46079374329068
            ],
            [
              77.92391955840552,
              16.45993851477688
            ],
            [
              77.92373968304818,
              16.460018092601125
            ],
            [
              77.92403846374795,
              16.460554416387055
            ],
            [
              77.92412138139623,
              16.460635611928108
            ],
            [
              77.92408151442523,
              16.46092865785025
            ],
            [
              77.92432103257745,
              16.46079374329068
            ]
          ]
        ]
      }
    },
    {
      "type": "Feature",
      "properties": {
        "OBJECTID": 2,
        "Remarks": " ",
        "LandUse_Fr": "Naksha",
        "District": "Mahabubnagar",
        "Mandal": "Addakal",
        "Village": "Baleedupalle",
        "DMV_1991": "1437004",
        "V_2011": "576028",
        "Base_Syno": "112",
        "Descriptio": "Surveyed",
        "Shape_Length": 557.1889842618173,
        "Shape_Area": 12447.727659845463
      },
      "geometry": {
        "type": "Polygon",
        "coordinates": [
          [
            [
              77.92364841766512,
              16.46069212250366
            ],
            [
              77.92403846374795,
              16.460554416387055
            ],
            [
              77.92373968304818,
              16.460018092601125
            ],
            [
              77.92328091938278,
              16.458857391865756
            ],
            [
              77.92291217406041,
              16.460628150758293
            ],
            [
              77.92321547920712,
              16.460650147633647
            ],
            [
              77.9233283077347,
              16.460922520884555
            ],
            [
              77.92364841766512,
              16.46069212250366
            ]
          ]
        ]
      }
    }
  ]
}